ONEWEB-0273             
1 48991U 21060AA  23295.86138815  .00000005  00000+0 -21640-4 0  9993
2 48991  87.9060  61.4959 0001552  90.7858 269.3450 13.16596943112175
ONEWEB-0274             
1 48992U 21060AB  23295.88672172 -.00000009  00000+0 -58468-4 0  9998
2 48992  87.9061  61.4947 0002297  89.8350 270.3044 13.16592924112218
ONEWEB-0275             
1 48993U 21060AC  23295.87617585 -.00000008  00000+0 -55818-4 0  9990
2 48993  87.9053  61.4970 0001586  95.7564 264.3748 13.16591052112146
ONEWEB-0276             
1 48994U 21060AD  23295.90994467  .00000062  00000+0  12780-3 0  9990
2 48994  87.9059  61.4795 0001501  83.9344 276.1958 13.16596895112166
ONEWEB-0277             
1 48995U 21060AE  23295.92260905 -.00000085  00000+0 -25716-3 0  9996
2 48995  87.9058  61.5165 0001769  76.0993 284.0334 13.16596074112151
ONEWEB-0278             
1 48996U 21060AF  23295.83604664 -.00000102  00000+0 -30101-3 0  9995
2 48996  87.9061  61.4905 0001449 109.2739 250.8549 13.16597525112273
ONEWEB-0279             
1 48997U 21060AG  23295.92050975 -.00000028  00000+0 -10664-3 0  9995
2 48997  87.9060  61.4716 0001687  97.2079 262.9244 13.16595890112213
ONEWEB-0280             
1 48998U 21060AH  23295.85926726 -.00000316  00000+0 -86079-3 0  9997
2 48998  87.9059  61.4841 0001907  73.5020 286.6320 13.16593581112144
